STARLINK-3711           
1 52131U 22029AV  26069.30799288  .00043578  00000+0  23624-2 0  9991
2 52131  53.2147  64.6419 0000907  43.2931 316.8134 15.14186108221055
STARLINK-3718           
1 52132U 22029AW  26069.14617050  .00000637  00000+0  58105-4 0  9993
2 52132  53.2172  67.0717 0001349  93.7898 266.3249 15.08831704221008
STARLINK-3707           
1 52133U 22029AX  26069.26392607 -.00001712  00000+0 -89478-4 0  9999
2 52133  53.2168  66.5377 0001186 102.0236 258.0889 15.08842212221025
STARLINK-3721           
1 52134U 22029AY  26069.13512646  .00000415  00000+0  44146-4 0  9993
2 52134  53.2182  67.1202 0001402  96.4743 263.6409 15.08839508221008
STARLINK-3729           
1 52135U 22029AZ  26069.25384603 -.00000022  00000+0  16734-4 0  9994
2 52135  53.2182  66.5989 0001386  88.3564 271.7587 15.08850485221022
STARLINK-3720           
1 52136U 22029BA  26069.26026144  .00000258  00000+0  34306-4 0  9994
2 52136  53.2184  66.5578 0001368  81.1474 278.9673 15.08815173221020
STARLINK-3733           
1 52137U 22029BB  26069.24922001 -.00000878  00000+0 -37115-4 0  9991
2 52137  53.2171  66.6064 0001321  85.3361 274.7782 15.08829150221023
STARLINK-3723           
1 52138U 22029BC  26069.25654609  .00003641  00000+0  24659-3 0  9996
2 52138  53.2181  66.5720 0001253  92.1419 267.9717 15.08859898221021
STARLINK-3730           
1 52139U 22029BD  26069.23724874 -.00004122  00000+0 -24103-3 0  9998
2 52139  53.2163  76.6637 0000988  94.7841 265.3264 15.08847033220871
STARLINK-3682           
1 52140U 22029BE  26069.31177058 -.00000817  00000+0 -33220-4 0  9993
2 52140  53.2177  66.3248 0001543  76.5933 283.5231 15.08846093221030
MERIDIAN 10             
1 52145U 22030A   26068.77758362  .00000245  00000+0  00000+0 0  9990
2 52145  62.6660 151.4117 6759187 272.9537  17.8258  2.00611953 29046
TK-2                    
1 52150U 22031A   26069.28516885  .00005471  00000+0  41064-3 0  9991
2 52150  97.8367 264.2731 0016426  99.2720 261.0363 15.02947929215601
PUJIANG 2 (PJ-2)        
1 52151U 22031B   26069.26753390  .00001691  00000+0  16311-3 0  9991
2 52151  97.8602 254.7094 0012106 163.9173 196.2434 14.94192869215021
TIANPING 2A             
1 52153U 22032A   26069.29161231  .00001681  00000+0  15123-3 0  9993
2 52153  97.5991 109.8414 0010933 145.1718 215.0221 14.96913642215048
TIANPING 2B             
1 52155U 22032C   26069.33192421  .00002887  00000+0  22824-3 0  9990
2 52155  97.6053 116.7138 0020918 128.7883 231.5214 15.01270384215449
TIANPING 2C             
1 52156U 22032D   26069.33114661  .00004989  00000+0  30883-3 0  9990
2 52156  97.5957 122.5144 0007991 128.2598 231.9351 15.10230012215921
OMNI-L1                 
1 52157U 22033A   26069.16748550  .00003100  00000+0  39409-3 0  9990
2 52157  97.8436 150.2838 0004215 237.9304 122.1500 14.82335070212780
GNOMES-3                
1 52158U 22033B   26069.11270446  .00002914  00000+0  35045-3 0  9994
2 52158  97.8284 147.2004 0009597 289.2236  70.7940 14.84671940212636
ENMAP                   
1 52159U 22033C   26069.25636175  .00000751  00000+0  11913-3 0  9990
2 52159  97.9791 152.9109 0001049  93.5535 266.5794 14.74969229212071
ARCSAT-1                
1 52161U 22033E   26069.24059779  .00017051  00000+0  29564-3 0  9993
2 52161  97.2732 160.2521 0005414 182.1341 177.9889 15.50935735220352
LYNK TOWER 1            
1 52162U 22033F   26069.22554841  .02417738  23806-5  83741-3 0  9992
2 52162  97.2489 175.0903 0006563 237.0980 122.9681 16.25337222221334
NUSAT-26 (M SOMERVILLE) 
1 52184U 22033AD  26069.24603395  .00030897  00000+0  81235-3 0  9993
2 52184  97.2403 149.3392 0005314 232.4620 127.6143 15.38517349 89478
GLOBAL-18               
1 52196U 22034B   26069.10606305  .00027877  00000+0  64766-3 0  9990
2 52196  52.9843   8.7314 0002656 332.0124  28.0736 15.42157347221654
GAOFEN-3 03             
1 52200U 22035A   26069.36598054  .00000102  00000+0  44202-4 0  9992
2 52200  98.4115  79.3646 0001602 100.7799 259.3571 14.42206465206606
COSMOS 2554             
1 52202U 22036A   26069.30664816 -.00000046  00000+0  21343-4 0  9998
2 52202  67.1464 108.9962 0007051 263.4264  96.6018 13.96674111200142
ZHONGXING-6D            
1 52255U 22038A   26069.18624155 -.00000352  00000+0  00000+0 0  9998
2 52255   0.0307 231.4216 0002096  80.1378  48.4027  1.00269385 14424
DAQI 1                  
1 52257U 22039A   26069.29762488  .00000811  00000+0  18763-3 0  9993
2 52257  98.1405  10.2443 0003130 177.8772 182.2441 14.57657669207535
STARLINK-3761           
1 52262U 22041B   26069.30808181 -.00000458  00000+0 -10679-4 0  9993
2 52262  53.2166 106.2969 0001859  93.8791 266.2414 15.08840106214459
STARLINK-3786           
1 52263U 22041C   26069.31176716  .00001595  00000+0  11829-3 0  9995
2 52263  53.2171 106.3293 0001366  99.4852 260.6294 15.08835706214454
STARLINK-3795           
1 52264U 22041D   26069.23816565 -.00000595  00000+0 -19290-4 0  9992
2 52264  53.2163 106.6584 0001367  84.3451 275.7697 15.08843284214444
