OBJECT_NAME,OBJECT_ID,EPOCH,MEAN_MOTION,ECCENTRICITY,INCLINATION,RA_OF_ASC_NODE,ARG_OF_PERICENTER,MEAN_ANOMALY,EPHEMERIS_TYPE,CLASSIFICATION_TYPE,NORAD_CAT_ID,ELEMENT_SET_NO,REV_AT_EPOCH,BSTAR,MEAN_MOTION_DOT,MEAN_MOTION_DDOT
STARLINK-3711,2022-029AV,2026-03-10T07:23:30.584832,15.14186108,.0000907,53.2147,64.6419,43.2931,316.8134,0,U,52131,999,22105,.23624457E-2,.43578E-3,0
STARLINK-3718,2022-029AW,2026-03-10T03:30:29.131200,15.08831704,.00013496,53.2172,67.0717,93.7898,266.3249,0,U,52132,999,22100,.58104777E-4,.637E-5,0
STARLINK-3707,2022-029AX,2026-03-10T06:20:03.212448,15.08842212,.00011865,53.2168,66.5377,102.0236,258.0889,0,U,52133,999,22102,-.89477723E-4,-.1712E-4,0
STARLINK-3721,2022-029AY,2026-03-10T03:14:34.926144,15.08839508,.00014029,53.2182,67.1202,96.4743,263.6409,0,U,52134,999,22100,.44146324E-4,.415E-5,0
STARLINK-3729,2022-029AZ,2026-03-10T06:05:32.296992,15.08850485,.00013862,53.2182,66.5989,88.3564,271.7587,0,U,52135,999,22102,.16733596E-4,-.22E-6,0
STARLINK-3720,2022-029BA,2026-03-10T06:14:46.588416,15.08815173,.00013688,53.2184,66.5578,81.1474,278.9673,0,U,52136,999,22102,.34306391E-4,.258E-5,0
STARLINK-3733,2022-029BB,2026-03-10T05:58:52.608864,15.08829150,.00013211,53.2171,66.6064,85.3361,274.7782,0,U,52137,999,22102,-.37115439E-4,-.878E-5,0
STARLINK-3723,2022-029BC,2026-03-10T06:09:25.582176,15.08859898,.00012538,53.2181,66.5720,92.1419,267.9717,0,U,52138,999,22102,.24659255E-3,.3641E-4,0
STARLINK-3730,2022-029BD,2026-03-10T05:41:38.291136,15.08847033,.00009887,53.2163,76.6637,94.7841,265.3264,0,U,52139,999,22087,-.24103382E-3,-.4122E-4,0
STARLINK-3682,2022-029BE,2026-03-10T07:28:56.978112,15.08846093,.00015431,53.2177,66.3248,76.5933,283.5231,0,U,52140,999,22103,-.33219816E-4,-.817E-5,0
MERIDIAN 10,2022-030A,2026-03-09T18:39:43.224768,2.00611953,.67591878,62.6660,151.4117,272.9537,17.8258,0,U,52145,999,2904,0,.245E-5,0
TK-2,2022-031A,2026-03-10T06:50:38.588640,15.02947929,.00164268,97.8367,264.2731,99.2720,261.0363,0,U,52150,999,21560,.41063756E-3,.5471E-4,0
PUJIANG 2 (PJ-2),2022-031B,2026-03-10T06:25:14.928960,14.94192869,.00121062,97.8602,254.7094,163.9173,196.2434,0,U,52151,999,21502,.16311313E-3,.1691E-4,0
TIANPING 2A,2022-032A,2026-03-10T06:59:55.303584,14.96913642,.00109336,97.5991,109.8414,145.1718,215.0221,0,U,52153,999,21504,.15123279E-3,.1681E-4,0
TIANPING 2B,2022-032C,2026-03-10T07:57:58.251744,15.01270384,.00209188,97.6053,116.7138,128.7883,231.5214,0,U,52155,999,21544,.2282369E-3,.2887E-4,0
TIANPING 2C,2022-032D,2026-03-10T07:56:51.067104,15.10230012,.00079912,97.5957,122.5144,128.2598,231.9351,0,U,52156,999,21592,.30883129E-3,.4989E-4,0
OMNI-L1,2022-033A,2026-03-10T04:01:10.747200,14.82335070,.00042159,97.8436,150.2838,237.9304,122.1500,0,U,52157,999,21278,.39409081E-3,.31E-4,0
GNOMES-3,2022-033B,2026-03-10T02:42:17.665344,14.84671940,.00095976,97.8284,147.2004,289.2236,70.7940,0,U,52158,999,21263,.35045391E-3,.2914E-4,0
ENMAP,2022-033C,2026-03-10T06:09:09.655200,14.74969229,.00010498,97.9791,152.9109,93.5535,266.5794,0,U,52159,999,21207,.11913261E-3,.751E-5,0
ARCSAT-1,2022-033E,2026-03-10T05:46:27.649056,15.50935735,.00054144,97.2732,160.2521,182.1341,177.9889,0,U,52161,999,22035,.29563548E-3,.17051E-3,0
LYNK TOWER 1,2022-033F,2026-03-10T05:24:47.382624,16.25337222,.00065638,97.2489,175.0903,237.0980,122.9681,0,U,52162,999,22133,.83740662E-3,.2417738E-1,.2380561E-5
NUSAT-26 (M SOMERVILLE),2022-033AD,2026-03-10T05:54:17.333280,15.38517349,.00053143,97.2403,149.3392,232.4620,127.6143,0,U,52184,999,8947,.81235162E-3,.30897E-3,0
GLOBAL-18,2022-034B,2026-03-10T02:32:43.847520,15.42157347,.00026561,52.9843,8.7314,332.0124,28.0736,0,U,52196,999,22165,.64766312E-3,.27877E-3,0
GAOFEN-3 03,2022-035A,2026-03-10T08:47:00.718656,14.42206465,.0001602,98.4115,79.3646,100.7799,259.3571,0,U,52200,999,20660,.44202E-4,.102E-5,0
COSMOS 2554,2022-036A,2026-03-10T07:21:34.401024,13.96674111,.00070519,67.1464,108.9962,263.4264,96.6018,0,U,52202,999,20014,.21342802E-4,-.46E-6,0
ZHONGXING-6D,2022-038A,2026-03-10T04:28:11.269920,1.00269385,.00020965,0.0307,231.4216,80.1378,48.4027,0,U,52255,999,1442,0,-.352E-5,0
DAQI 1,2022-039A,2026-03-10T07:08:34.789632,14.57657669,.00031301,98.1405,10.2443,177.8772,182.2441,0,U,52257,999,20753,.18762612E-3,.811E-5,0
STARLINK-3761,2022-041B,2026-03-10T07:23:38.268384,15.08840106,.00018596,53.2166,106.2969,93.8791,266.2414,0,U,52262,999,21445,-.10679111E-4,-.458E-5,0
STARLINK-3786,2022-041C,2026-03-10T07:28:56.682624,15.08835706,.00013662,53.2171,106.3293,99.4852,260.6294,0,U,52263,999,21445,.11829281E-3,.1595E-4,0
STARLINK-3795,2022-041D,2026-03-10T05:42:57.512160,15.08843284,.00013672,53.2163,106.6584,84.3451,275.7697,0,U,52264,999,21444,-.19290211E-4,-.595E-5,0
